[
  {
    "name": "PLEIADES NEO 3",
    "line1": "1 48268U 21034A   25363.88172059 -.00000363  00000+0 -39516-4 0  9998",
    "line2": "2 48268  97.8942  76.0766 0001320  86.4659 273.6705 14.81671822252587",
    "catNr": 48268
  },
  {
    "name": "PLEIADES NEO 4",
    "line1": "1 49070U 21073E   25363.44274744  .00000441  00000+0  62696-4 0  9999",
    "line2": "2 49070  97.8942  75.6400 0001350  88.6850 271.4517 14.81674707236235",
    "catNr": 49070
  }
]